LANDXADDRESSPOINT|LANDYADDRESSPOINT|NAME|DESCRIPTION|INC_CRC|FMEL_UPD_D|HYPERLINK|LATITUDE|LONGITUDE
42193.6328|36479.08|Jalan Pelatok Open Space|Jalan Pelatok|BC5EA394BD8CE9F8|20200218182414||1.34617500824454|103.96085701087
44210.12|41314.54|Turnhouse Park|Natheravon Road|AB31CCDD36F93C1C|20200218182414||1.38990401870983|103.978978976056
37994.87|43526.7266|Coney Island Park|Beside Punggol Promenade Nature Walk|7CAC664DFF94240C|20200218182414|www.nparks.gov.sg/gardens-parks-and-nature/parks-and-nature-reserves/coney-island-park|1.4099130157165|103.923130995416
31744.6465|40134.5625|Stratton Walk Playground|Located at the end of Stratton Walk|8FC92F17CF75A88A|20200218182414||1.37923700487091|103.866966992109
27527.52|39418.4531|Leban Park|Behind Sembawang Hills Food Centre.  Upper Thomson Road behind ESSO.|EB7459375A3D10F7|20200218182414||1.37276100286023|103.829073008381
41180.700000000004|33663.2344|Kew Drive Playground|At the roundabout of Kew Drive|3120B9A286F21587|20200218182414||1.3207100152588|103.951753989584
41563.207|35869.1133|Harvey Crescent Playground|Harvey Crescent|20880D0B4E75011A|20200218182414||1.34065899009129|103.955191986755
33374.3672|38774.520000000004|Poh Huat Road Playground|Bounded by Poh Huat Road and Poh Huat Crescent|2C20594469A955C4|20200218182414||1.36693701735687|103.881610986055
28106.66|41335.49|Lentor Street Playground|Near Lentor Crescent and Lentor Street|0E6DB6A242F9EEF2|20200218182414||1.39009800189331|103.834277001944
31097.3965|40340.4453|Lilac Drive Playground|Located at the end of Lilac Drive|E6F53FED0B894E21|20200218182414||1.38109901056076|103.861150995157
31355.8457|37272.1055|Mei Hwan Drive Playground|Bounded by Lorong Chuan and Ang Mo Kio Ave 1|19AFA344C16505F9|20200218182414||1.35335001597094|103.863473007606
31637.9512|38060.5078|Chuan Green Playground|Along Chuan Drive|772D072B4A23E587|20200218182414||1.36048001138245|103.866008002092
31346.3379|41087.71|Begonia Road Playground|Begonia Road near provision shop|0ED8A5B4660D3DC6|20200218182414||1.3878569764647|103.863388004105
28435.7344|41306.41|Fudu Walk Playground|Junction of Lentor Road and Fudu Walk|086DCD09121859AE|20200218182414||1.38983500975178|103.837233991568
28586.752|41331.840000000004|Countryside Playground|Junction of Lentor Loop and Countryside Link and Countryside Road|6946A424EC57BD58|20200218182414||1.39006498690252|103.838591002804
40644.66|35116.0547|Jalan Pari Burong Playground|Jalan Pari Burong|A058CCE975E44EBF|20200218182414||1.3338490080587|103.946937998833
27940.62|39292.950000000004|St. Nicholas View Playground|Junction of Ang Mo Kio Ave 2 and Ang Mo Kio Street 11|5788E506D0FDAB82|20200218182414||1.37162600142277|103.832785007318
37555.41|33918.8438|Waringin Park Playground|Along Waringin Park|EF909169B81E9DEB|20200218182414||1.32302300071578|103.919178991455
33733.9922|36352.3828|Tai Keng Place Playground|A small playground at the end of Tai keng Place (Road)|6F29197BDF70B653|20200218182414||1.345032012357|103.884842001596
32917.31|38674.1055|Parry Road Playground|Bounded by Parry Road, Parry Terrace and Chuan Hoe Avenue|D4893F4D6A7A6DC4|20200218182414||1.36602898427679|103.877503995194
31600.2246|38054.4258|Garden View Playground|Along Conway Grove|B702F418F69DC068|20200218182414||1.36042501254669|103.865669002678
34622.01|39064.9141|Jalan Naung Playground|Along Jalan Naung|75456CBD2D8FA780|20200218182414||1.36956298336645|103.892821980736
28563.6035|41173.2773|Lentor Walk Playground|Junction of Lentor Loop and Lentor Walk|F0619964ED0B58C6|20200218182414||1.38863100316938|103.838382992442
42788.71|38223.6563|Mariam Way Playground|Mariam Way|24CB69EEF1E5A3E7|20200218182414||1.36195200532663|103.966204991398
43049.3633|37957.74|Mariam Walk Playground|Mariam Walk|F66150300D02C36F|20200218182414||1.35954702875823|103.968546996712
27922.59|40074.2734|Thomson Green Playground|Thomson Green road, behind shop houses|B301234EA6A5BBF3|20200218182414||1.37869201086068|103.832622992872
33652.3945|37516.293|Surin Avenue Neighbourhood Park|Bounded by Surin Ave and Aroozoo Ave|88D9CB89C5ED2C1F|20200218182414||1.35555801355152|103.884109015017
31192.59|36742.3359|Chiltern Drive Interim Park|Located along Chiltern Drive (Road) within Braddel Height Estate and beside St. Gabriel Secondary School|799AC8121D7A57AE|20200218182414||1.3485589866523|103.862005994263
40828.14|33494.92|Kew Crescent Playground|Along Kew Crescent|B3743948D125A5E7|20200218182414||1.31918799226855|103.948585989819
28415.9277|40803.4023|Lentor Green Playground|Near Lentor Loop and within Lentor Green|EF3BCEF9A11F2BE9|20200218182414||1.38528598872966|103.837056005834
31730.62|40559.5|Nim Crescent Open Space|Located along Nim Crescent|AE9C00E81015C0B6|20200218182414||1.38307998862516|103.86684100749
31798.8789|37740.3945|Colchester Grove Open Space|Along Colchester Grove|DB02F9F1D0A2C0AB|20200218182414||1.3575850011328|103.867454004249
31565.600000000002|39136.066399999996|Tavistock Avenue Park|Junction of Ang Mo Kio Ave 3 and Tavistock Ave|CF26A22674D2BC36|20200218182414||1.37020698685564|103.865358006982
38126.0273|33097.957|Elite Terrace Park|Bounded by Elite Park Avenue and Elite Terrace|055A39B259377CFB|20200218182414||1.31559901614235|103.924306015806
32458.5449|40838.3828|Jalan Selaseh Playground|Bounded by Jalan Selaseh, Seletar Hills Drive & Jalan Keruing|AA6469B3C9CF05CF|20200218182414||1.38560200214797|103.873382001962
33292.4922|37270.81|Jalan Geneng Interim Park|Along Jalan Geneng|1852078C6668522B|20200218182414||1.35333801951661|103.880875016585
31302.8281|31643.29|Kampong Glam Park|Along beach road|5F26F987DF1B33E6|20200218182414||1.30244501399783|103.862996003651
29407.404300000002|36916.92|Clover Way Playground|Junction of Clover Way and Binchang Rise|1A59DE3A345F4205|20200218182414||1.35013800008884|103.845964994247
36326.05|31914.5215|Marine Parade Road Park|A linear park along Marine Parade Road between Still Road South (Road) and East Coast Road. It flanked itself at terminal roads of private houses with one courtyard in front of Grand Mercue Roxy Hotel.|4DBD588CA9153C17|20200218182414||1.30489699274238|103.908132009336
32898.79|35180.4922|Butterfly Avenue Playground|Butterfly Avenue, Sennett Estate|4FF401FD8E317547|20200218182414||1.3344340005684|103.877337012157
28784.1875|36785.8867|Marymount Terrace Playground|End of Marymount Terrace|BF55993565B41D6E|20200218182414||1.34895300431616|103.840364994858
31316.0176|36085.8555|Carmichael Road Playground|Carmichael Road|53DA086B747F82E2|20200218182414||1.34262199857387|103.863114996244
20481.7715|35163.5234|Greenridge Crescent Playground|Located along Greenridge Crescent|3DC1E90FB5DDF7DD|20200218182414||1.3342800030382|103.765763004383
28024.0859|38241.7148|Fulton Avenue Playground|Along Fulton Ave|1C301C15FB8F9285|20200218182414||1.36211900551873|103.833535006924
20952.0781|35070.4063|Savoy Park Playground|Located at the end of Eng Kong Drive|E439DF16FD095FF9|20200218182414||1.33343799865579|103.769988997386
20646.9258|35214.2734|Eng Kong Place Fitness Corner|Located along Eng Kong Place|9B2E40862E5853BF|20200218182414||1.33473900830612|103.767246997122
18582.3281|33313.7734|Pandan Reservoir Fitness Corner|Juntion of West Coast Road & Pandan Gardens|46F986B3C0659F1F|20200218182414||1.31755100565495|103.74869600057
21402.1816|37255.4648|Bukit Timah Nature Reserve|End of Hindhede Drive|3BDE3205F96F1B62|20200218182414|www.nparks.gov.sg/gardens-parks-and-nature/parks-and-nature-reserves/bukit-timah-nature-reserve|1.35319898245639|103.774032955111
23493.9238|30813.2578|one-north Park: Mediapolis|Media Circle, next to MediaCorp campus|0A0B96D99AE2AD78|20200218182414|www.nparks.gov.sg/gardens-parks-and-nature/parks-and-nature-reserves/one-north-park-mediapolis|1.29493834487393|103.792829540115
15072.7891|35774.543|Lakeside Grove Fitness Corner|Corporation Rise, along Lakeside PCN.|49F83FD6C22D5865|20200218182414||1.33980400972371|103.717160003251
13279.7637|37097.996100000004|Westwood Park Playground|Westwood Crescent/Ave.|3A7423776B643EA3|20200218182414||1.35177199512194|103.701048000098
20360.0234|39179.61|Cashew Road Playground|Junction of Cashew Road and Upper Bukit Timah Road|9B2F0980DFE85F18|20200218182414||1.37060000450024|103.764668007983
19730.9824|37857.1523|Chu Yen Playground|Junction of Jln Remaja and Chu Yen Street|CB9D8F2AC6FB3D32|20200218182414||1.35864000916998|103.759016001687
19954.55|37494.57|Hillview Crescent Playground|Hillview Cescent, along Hillview Avenue|C03B764FE9E80701|20200218182414||1.35536100795603|103.761025000317
20553.3086|34335.0938|Sunset Way Playground|Along Sunset Way|D02DFEA28D368014|20200218182414||1.32678800198744|103.76640600767
16630.9316|35360.1055|Jurong Lake Gardens|Along Yuan Ching Road and Boon Lay Way|DB390E826A98D15C|20200218182414|www.nparks.gov.sg/gardens-parks-and-nature/parks-and-nature-reserves/jurong-lake-gardens|1.33605661779116|103.731160967029
23249.6484|31483.7539|one-north Park: Fusionopolis North|Along Central Exchange Green|FECD599E4B43D4AB|20200218182414|www.nparks.gov.sg/gardens-parks-and-nature/parks-and-nature-reserves/one-north-park-fusionopolis-north|1.30100203775994|103.790634518931
20370.07|32340.6582|Taman Mas Merah Playground|Taman Mas Merah, West Coast Peak Estate|6C744303E59213AC|20200218182414||1.30875099860659|103.764760003254
20833.7773|39263.5234|Cashew Link Playground|Located along Cashew Link and Cashew Crescent|76672EABB60FDEBA|20200218182414||1.37135900584168|103.768924998308
21621.8633|36924.29|Hindhede Nature Park|Along Hindhede Drive|A915DD4C9B00E016|20200218182414|www.nparks.gov.sg/gardens-parks-and-nature/parks-and-nature-reserves/hindhede-nature-park|1.35020400464513|103.776007005438
19615.11|33558.7734|Faber Hill Playground|Along Faber Green|76825A42FC8AC938|20200218182414||1.31976699701647|103.757975999596
19941.144500000002|35776.9|Burgundy Crescent Playground|Burgundy Crescent, within Burgundy Hill Residences|39625DFC79777B4B|20200218182414||1.33982701990743|103.760905002133
19947.22|38053.97|Lorong Kemunchup Playground|Along Lorong Kemunchup|C767FF100CA63B91|20200218182414||1.36042001623966|103.76095898509
21388.3|38307.4766|Dairy Farm Nature Park|Along Dairy Farm Road|D2E818169A369EA4|20200218182414||1.36271299419191|103.773907987741
20823.1934|38851.6328|Chestnut Drive Playground|Junction of Chestnut Drive and Chestnut Terrace|A29D55628024A73B|20200218182414||1.36763401414182|103.768829994104
20372.2422|34435.39|Sunset Way Park|Along Sunset Way, located just outside Clementi Park Condo|D2E19B02FA1C3F3B|20200218182414||1.32769499983866|103.764779003407
18947.6738|39366.082|Pavilion Park Playground|Pavilion Circle, off Bukit Batok Road|3C808BDDC9DDA21F|20200218182414||1.37228598896427|103.751977003043
19435.25|33093.590000000004|West Coast Green Playground|West Coast Green, West Coast Gardens Estate|E7E7429FF42D5F9F|20200218182414||1.31555999669294|103.756359994439
19685.3613|38078.19|Jalan Dermawan Playground|Along Jln Dermawan|026A96ECFD0DE9D4|20200218182414||1.36063898092479|103.75860600478
23085.7988|31990.100000000002|one-north Park: Rochester East|Along Vista Exchange Green, in front of Rochester Mall|6737176BF81736D6|20200218182414|www.nparks.gov.sg/gardens-parks-and-nature/parks-and-nature-reserves/one-north-park-rochester-east|1.30558122667376|103.789162176587
14039.5664|35576.996100000004|Jurong Central Park|Junction off Jalan Boon Lay & Boon Lay Way|8A8EE7F0A86B2251|20200218182414|www.nparks.gov.sg/gardens-parks-and-nature/parks-and-nature-reserves/jurong-central-park|1.33801700926634|103.707875996198
19580.841800000002|33861.418|Faber Height Open Space|Along Faber Walk|8C43839BF220936F|20200218182414||1.32250399598282|103.757667999449
19667.843800000002|32949.17|West Coast Place Playground|West Coast Place, West Coast Gardens Estate|D7D8AEC6567902E5|20200218182414||1.31425397832238|103.758450004373
13011.35|37370.58|Westville Playground|Westwood Crescent, along Jalan Bahar|0875BCBCF3532C19|20200218182414||1.35423700663436|103.698636002705
18884.75|41274.94|Villa Verde Park|Junction of Choa Chu Kang North 5 and Stagmont Ring Rd|825841DB4B9E80ED|20200218182414||1.38954898021615|103.751410997398
20449.4258|36630.19|Bukit Batok Nature Park|Along Bukit Batok East Avenue 2 and Bukit Batok East Avenue 6|687BC328F41D4BB4|20200218182414||1.34754399774384|103.765471994671
21327|39032.520000000004|Chestnut Close Playground|Located at end of Chestnut Close|66CC564969878943|20200218182414||1.36927001062503|103.773357003454
24929.095699999998|42402.668|Upper Seletar Reservoir Park|Along Mandai Road Track 7, off Mandai Road|750596296F1D4DC4|20200218182414|www.nparks.gov.sg/gardens-parks-and-nature/parks-and-nature-reserves/upper-seletar-reservoir-park|1.39974901320673|103.805723997797
26344.8828|42433.9453|Thong Soon Green Playground|Beside petrol kiosk|2733F67AEA96B1A9|20200218182414||1.40003198984827|103.8184459979
26783.1289|42526.7148|Springleaf Avenue Playground|Springleaf avenue|CB24BE507115244E|20200218182414||1.40087098567589|103.822383993324
24829.8965|29147.834000000003|The Southern Ridges|Southern Singapore|5DEB8A91BCAA7962|20200218182414|www.nparks.gov.sg/gardens-parks-and-nature/parks-and-nature-reserves/the-southern-ridges|1.27987700300301|103.80483399736
26965.9258|30003.668|Tiong Bahru Park|Along Tiong Bahru Road and Lower Delta Road|E7396C4A8BD86249|20200218182414|www.nparks.gov.sg/gardens-parks-and-nature/parks-and-nature-reserves/tiong-bahru-park|1.28761700771254|103.824027002227
20687.998|31255.1367|Clementi Woods Park|Along West Coast Road next to West Coast Plaza|DB6AC9C66DF7E39E|20200218182414|www.nparks.gov.sg/gardens-parks-and-nature/parks-and-nature-reserves/clementi-woods-park|1.29893400799437|103.767616991901
20065.9121|32367.6465|Jalan Mas Puteh Playground|Jalan Mas Puteh, West Coast Peak Estate|E251D11ADDEF4483|20200218182414||1.30899499439468|103.762026993326
20174.1543|30947.6738|West Coast Park|Parallel to West Coast Highway|857734FB60B3361E|20200218182414||1.29615329873174|103.762999956965
23259.3086|31330.1641|one-north Park: Fusionopolis South|Along Central Exchange Green|EA18912EEAD8317A|20200218182414|www.nparks.gov.sg/gardens-parks-and-nature/parks-and-nature-reserves/one-north-park-fusionopolis-south|1.29961302753491|103.790721343478
20897.2148|39361.4922|Cashew Crescent Fitness Corner Playground|Located along Cashew Road and Cashew Crescent|6B361A762DD3F663|20200218182414||1.37224501547955|103.769495005402
20790.5566|37721.0039|Fuyong Interim Park|Located along Jalan Asas|27950593DED69D81|20200218182414||1.35740900815882|103.768537003146
18553.3359|41229.6172|Choa Chu Kang Park|Along Choa Chu Kang Drive, next to KJE|84998193765E95EA|20200218182414|www.nparks.gov.sg/gardens-parks-and-nature/parks-and-nature-reserves/choa-chu-kang-park|1.38913899170983|103.748433001808
20246.1777|39294.06|Hazel Park Open Space|Located along Upper Bukit Timah Road|A50FBDC42FFC5543|20200218182414||1.37163501891167|103.763644994757
20241.6367|32236.39|Jalan Mas Kuning Playground|Jalan Mas Kuning, West Coast Peak Estate|52CC5AD24CCC049E|20200218182414||1.30780800245289|103.763605995133
20827.3066|34463.0234|Sunset Heights Open Space|Along Sunset Heights|889F376DE6E359DC|20200218182414||1.32794501705898|103.768867997661
21163.084|39468.7422|Almond Crescent Playground|Junction of Almond Crescent and Almond Street|266324D3F3D2CD6C|20200218182414||1.37321500854805|103.771884003432
19533.394500000002|39764.58|Phoenix Heights Playground|Along Phoenix Rd, off Choa Chu Kang Rd|52C91CF6F5780AA7|20200218182414||1.37589003353554|103.757240001981
15232.3789|35804.2773|Lakeside Grove Playground|Corporation Rise|342ED74CBE233662|20200218182414||1.34007298363987|103.718593996798
22959.7285|32048.9141|one-north Park: Rochester West|Along Vista Exchange Green, opposite The Star Vista|9906605784F7494E|20200218182414|www.nparks.gov.sg/gardens-parks-and-nature/parks-and-nature-reserves/one-north-park-rochester-west|1.30611310021726|103.788029366525
12373.1123|35518.2578|Yunnan Park|Yunnan Crescent.Opp Jurong west sports hall.|F1A06128098C43A8|20200218182414||1.33748498597278|103.69290199957
19403.1211|37715.7344|Bukit Batok Town Park|Along Bukit Batok East Avenue 5|3E22C0281F3E04E2|20200218182414|www.nparks.gov.sg/gardens-parks-and-nature/parks-and-nature-reserves/bukit-batok-town-park|1.35736098423476|103.756069994032
19926.845699999998|37739.7148|Jalan Remaja Interim Park|Along Jln Remaja|6F7E275FDB39B5A5|20200218182414||1.35757800094458|103.760775993338
33337.3164|38457.832|Parry Avenue Interim Park|Along Parry Ave and Glasgow Road|8238C86374B86AD2|20200218182414||1.36407301180073|103.881278002318
31163.3164|37207.6367|Mei Hwan Crescent Playground|Bounded by Mei Hwan Drive and Mei Hwan Crescent|021312435E6361A0|20200218182414||1.35276700416957|103.861743001571
27573.8281|48029.700000000004|Pebble Garden|Off Sembawang Road|2758596DB4AEE800|20200218182414||1.45063801719106|103.829488991841
16928.916|47334.7539|Kranji Nature Trail|Off Kranji Way|69376E14E4629E66|20200218182414||1.44435098869543|103.73383399198
28392.4336|49231.0938|Sembawang Park|At the end of Sembawang|0816A6B2F3313B3E|20200218182414|www.nparks.gov.sg/gardens-parks-and-nature/parks-and-nature-reserves/sembawang-park|1.4615029860945|103.836845008751
33676.4375|42369.4258|Sengkang Riverside Park|Anchorvale Street abutting Sungei Punggol|B69DD8E34A62DB2C|20200218182414|www.nparks.gov.sg/gardens-parks-and-nature/parks-and-nature-reserves/sengkang-riverside-park|1.39944798848949|103.884325989939
26820.8613|43047.87|Brooks Park|Along Springside Ave|174F7682F6024278|20200218182414||1.4055841273393|103.822723028657
35956.55|43646.520000000004|Punggol Waterway Park|Along Sentul Crescent Road (Cuts through the whole of Punggol Town)|546A6DB1EFE4DB9C|20200218182414|www.nparks.gov.sg/gardens-parks-and-nature/parks-and-nature-reserves/punggol-waterway-park|1.4109970215842|103.904814998591
27198.793|45476.19|Platina Road Playground|Platina estate|076102BC56072481|20200218182414||1.42754499031824|103.826118993934
26236.12|42558.5625|Springleaf Nature Park|Nee Soon Road, Upper Thomson Road|B56D2B1467E9E6C0|20200218182414|www.nparks.gov.sg/gardens-parks-and-nature/parks-and-nature-reserves/springleaf-nature-park|1.40115897651427|103.817468667699
17621.416|46721.5859|Kranji Reservoir Park|Along Kranji Way|8B757636FB879EBD|20200218182414|www.nparks.gov.sg/gardens-parks-and-nature/parks-and-nature-reserves/kranji-reservoir-park|1.43880599266327|103.740057006009
28262.1211|48647.15|Kandis Garden|Off Sembawang Road/Kandis Road|954DC81886757C48|20200218182414||1.45622201251589|103.835674007799
27290.8262|38010.7031|Windsor Nature Park|30 Venus Drive, Singapore 573858 (Located close to Singapore Island Country Club)|61D4606FCA9F524B|20200218182414||1.36002980955599|103.826946179093
35270.1328|39880.5352|Punggol Park|Junction of Hougang Avenue 8 and 10|A997071F044A0F3D|20200218182414|www.nparks.gov.sg/gardens-parks-and-nature/parks-and-nature-reserves/punggol-park|1.37693901170228|103.898646016222
27872.291|43533.2773|Lower Seletar Reservoir Park|Bounded by Yishun Ave 1 and Lentor Avenue|CB5DC6630AF255AF|20200218182414|www.nparks.gov.sg/gardens-parks-and-nature/parks-and-nature-reserves/lower-seletar-reservoir-park|1.40997400015505|103.832171003957
26776.2285|42213.5664|Springleaf Garden Playground|Straight from springleaf estate entrance road.|54B23DCCBBA064D4|20200218182414||1.39803898385092|103.822322000777
22295.6016|47314.61|Admiralty Park|31 Riverside Road, Singapore 730000|4E353F2A56C83E22|20200218182414|www.nparks.gov.sg/gardens-parks-and-nature/parks-and-nature-reserves/admiralty-park|1.44417042427999|103.782058929229
28686.4531|45481.94|Yishun Pond Park|Along Yishun Central, in front of Khoo Teck Puat Hospital|EECA2F4988DD7F22|20200218182414|www.nparks.gov.sg/gardens-parks-and-nature/parks-and-nature-reserves/yishun-pond-park|1.42759699434119|103.839486993379
19733.7422|44256.3477|Jalan Rasok Park|Along Jln Rasok|DBC341F53A0B6293|20200218182414||1.41651199011886|103.759038994785
27113.3262|45447|Goodlink Park Playground|Turn right after Goodlink estate entrance|C6898AE8670B0E68|20200218182414||1.42728100396175|103.825350996754
29033.998|45125.78|Yishun Park|Bounded by Yishun Ave 4, Yishun Central, Yishun Ave 11 and Yishun Ring Road|1370FC84BCD77908|20200218182414|www.nparks.gov.sg/gardens-parks-and-nature/parks-and-nature-reserves/yishun-park|1.42437600154029|103.84260999229
27218.4727|39009.770000000004|Lower Peirce Reservoir Park|Along Old Upper Thomson Road|8B9EBA8A4FBE27B0|20200218182414|www.nparks.gov.sg/gardens-parks-and-nature/parks-and-nature-reserves/lower-peirce-reservoir-park|1.36906501231608|103.826296008364
37135.1055|42677.4766|Punggol Waterway|Along Sentul Crescent Road|3B67C7294C35D913|20200218182414||1.40223299924483|103.9154050167
20946.2656|46591.770000000004|Marsiling Park|Woodlands Centre Road adjacent to Bukit Timah Expressway|96486E19EF57B312|20200218182414|www.nparks.gov.sg/gardens-parks-and-nature/parks-and-nature-reserves/marsiling-park|1.43763301771893|103.769933998893
42701.0625|43391.7148|Pulau Ubin and Chek Jawa|Pulau Ubin|E415D97687EAFB85|20200218182414|www.nparks.gov.sg/gardens-parks-and-nature/parks-and-nature-reserves/pulau-ubin-and-chek-jawa|1.40868999314912|103.965420009834
23214.502|29642.79|Kent Ridge Park|Vigilante Drive off South Buona Vista Road|034656BDAFA8BF68|20200218182414||1.28435300657627|103.790318992831
28165.4922|21869.93|Sisters’ Islands Marine Park|Sisters’ Islands|D5016B28ECC28A3D|20200218182414||1.21405833267371|103.834805553003
25465.4844|29033.7148|Telok Blangah Hill Park|Telok Blangah Green off Henderson Road|5DFA1F5042BC1C4D|20200218182414|www.nparks.gov.sg/gardens-parks-and-nature/parks-and-nature-reserves/telok-blangah-hill-park|1.27884500650228|103.810545004407
24456.7539|29010.0234|HortPark|33 Hyderabad Road (off Alexandra Road), Singapore 119578|A5846571A555DFD6|20200218182414|www.nparks.gov.sg/gardens-parks-and-nature/parks-and-nature-reserves/hortpark|1.27863065273452|103.801481185309
30005.0781|29630.7031|Raffles Place Park|Bounded by Battery Road and Collyer Quay. It can also be accessed from D'Almeida Street.|06833C82218C53F5|20200218182414|www.nparks.gov.sg/gardens-parks-and-nature/parks-and-nature-reserves/raffles-place-park|1.28424399735648|103.851334997301
29475.6621|29895.5273|Hong Lim Park - Speakers' Corner|The park is bounded by North Canal Road, South Bridge Road, Upper Pickering Street and New Bridge Rd|AC8CA17A21868178|20200218182414|www.nparks.gov.sg/gardens-parks-and-nature/parks-and-nature-reserves/hong-lim-park|1.28663900368187|103.846577998059
33562.582|32007.0059|Mount Batten Rd/Old Airport Rd Open Space|Junction of Mt Batten Rd & Old Airport Rd|78E6B093FF09F721|20200218182414||1.30573400841613|103.88330098901
34008.090000000004|31546.8|Wilkinson Interim Park|Along Wilkinson Road|AA5EC52A19C4E25A|20200218182414||1.30157198694066|103.887303997701
33670.9023|35846.06|Bunga Rampai Park|Located along Jalan Bunga Rampai (Road) is a transitional zone among Bartley MRT, Bartley Secondary School and Jalan Bunga Rampai Estate|2F1D45EED0C983BA|20200218182414||1.34045302254281|103.884275005667
29608.8711|31259.1367|Handy Road Open Space|Bounded by Handy Road, Orchard Road and Zubir Said Drive; In front of The Cathay ▀|B4B92BB1A0D125DA|20200218182414||1.29897100091601|103.84777500427
30917.4219|32180.6777|Kitchener Green Playground|Along Kitchener Road|D56EAEF187A152BD|20200218182414||1.30730499713228|103.859533002821
28881.3613|31383.64|Penang Road Open Space|Along Penang Road and Oxley Road ▀|8536B482FE51D6CD|20200218182414||1.30009699401837|103.841238007513
25838.2285|32773.9063|National Orchid Garden|In the Central Core of the Singapore Botanic Gardens., Address: 1 Cluny Road, Singapore 259569|119021D2C0A30D47|20200218182414|www.nparks.gov.sg/gardens-parks-and-nature/parks-and-nature-reserves/national-orchid-garden|1.31267000887848|103.813893992211
20860.1641|35455.875|Eng Kong Garden Playground|Located along Lorong Kismis and Eng Kong Terrace|ADB5ACEDD0C508B1|20200218182414||1.33692401719002|103.769163007842
39808.5|33450.3125|Sennett Avenue Open Space|Sennett Ave|AABAA7518ACA5AC5|20200218182414||1.31878498855893|103.939423995901
37061.043|34398.832|Interim Park At Lengkong Enam|Along Jalan Selamat and Lengkong Tujuh|BA00DDAB0F3E954D|20200218182414||1.32736399042993|103.914736987314
41428.6367|34074.3633|Pesari Walk Playground|Along Taman Bedok|171B1A8D0BCD056B|20200218182414||1.32442800353246|103.953982005401
43451.0938|38322.770000000004|Changi Heights Playground|Jalan Terang Bulan|09DE4312CEE2D693|20200218182414||1.36284801405719|103.972156990988
37163.5352|34579.293|Jalan Senang Playground|Along Jalan Senang|927944CDCCC7E47B|20200218182414||1.32899598345262|103.915657988943
37010.8945|33072.043|Telok Kurau Park|A green space along Bedok Reservoir PCN. Entrance along Joo Chiat Place, Joo Chiat Walk, Joo Chiat Ave and Lorong J Telok Kurau (Road)|6FCD6CEF6885DDAA|20200218182414||1.31536500670409|103.914285987588
30590.9219|40986.6367|Sunrise Place Playground|Located along Sunrise Place|622FBEF14C816531|20200218182414||1.38694298284096|103.856600000567
31939.73|40381.2578|Seletar Terrace Playground|Located along Seletar Terrace|6C996D80208497AB|20200218182414||1.38146800285887|103.868719994142
25555.502|39611.75|Upper Peirce Reservoir Park|Along Old Upper Thomson Road|EC9FDBFD4393F73A|20200218182414|www.nparks.gov.sg/gardens-parks-and-nature/parks-and-nature-reserves/upper-peirce-reservoir-park|1.37450901296906|103.811353002102
31013.2949|37604.82|Tai Hwan Terrace Playground|Bounded by Tai Hwan Grove and Tai Hwan Terrace|51DC303FD7651D0F|20200218182414||1.35635900364815|103.860395002318
21980.32|46469.1133|Woodlands Town Park East|Along Woodlands street 13|7ED2BECE2F8269E3|20200218182414||1.43652399605571|103.779225994086
17110.896500000003|46876.9766|Sungei Buloh Wetland Reserve|Visitor Centre:, 60 Kranji Way, #01-00, Singapore 739453, Wetland Centre:, 301 Neo Tiew Crescent, Singapore 718925, Parking lots are available near both entrances.|085E18CF2019E327|20200218182414|www.nparks.gov.sg/gardens-parks-and-nature/parks-and-nature-reserves/sungei-buloh-wetland-reserve|1.44021109438519|103.735469441118
30990.6621|41291.72|Tamarind Road Playground|Tamarind Road|09819F1DC27928BB|20200218182414||1.38970200824166|103.860192003962
22079.2949|48257.7734|Woodlands Waterfront Park|Admiralty Road West|01E36C27ADF1A692|20200218182414||1.45270000280122|103.780115001631
28134.8164|39334.5273|Ellington Square Playground|Near Ang Mo Kio Ave 2/ Ang Mo Kio Street 11 and Ellington Square|F5CF4377C8B5A14D|20200218182414||1.37200201143139|103.8345300001
33556.49|36225.770000000004|Thrift Drive Open Space|Green open space along Upper Paya Lebar (Road) and along Thrift Drive (Road), facing Jalan Gotong Royong (Road)|0CD00CC02BF36ADD|20200218182414||1.34388700495724|103.883247013056
30105.2617|41336.7148|Cactus Road Playground|Located in Cactus Rd|BEF6EFD284E92D21|20200218182414||1.39010900260341|103.852235996241
28138.154300000002|40210.168|Serenade Walk Playground|Serenade walk road|C2CF14521E3B39D4|20200218182414||1.37992099278184|103.834559997553
27614.88|39497.5156|Gelenggang Park|Upper Thomson Road behind ESSO station.  Junction of Jalan Kuras/Jalan Gelenggang|B59FA0E862861781|20200218182414||1.3734760171315|103.82985799937
33199.418|39000.64|Park Villas Terrace Playground|Along Hougang Ave 2 and Park Villas Terrace|A9434EB7E9677E3D|20200218182414||1.36898199651608|103.880038986362
27292.834000000003|46782.4141|Jalan Kemuning Park|Off Sembawang Road/Jalan Kemuning Road|CE4D5D08BBC01CCD|20200218182414||1.43935801058573|103.826964006486
30537.6133|41132.043|Sunrise Terrace Open Space|Located along Sunrise Terrace|122B1D3AFC079CA8|20200218182414||1.38825798987759|103.85612099449
30692.1934|40994.270000000004|Sunrise Close Playground|Located at the junction of Sunrise Ave & Sunrise Place|05830DBD3D09DA63|20200218182414||1.38701200648595|103.85751000337
27908.791|39776.2734|Thomson Walk Playground|Thomson Walk Road|D257368CC200724B|20200218182414||1.37599700541463|103.832498999628
31300.27|40690.1953|Mimosa Road Playground|Located at Mimosa Crescent next to Mimosa Park Condo|7123569049B86143|20200218182414||1.38426200171396|103.862974003853
31400.24|37966.625|Chartwell Drive Park|Along Chartwell Drive|48DD42ABD462F168|20200218182414||1.35963099707599|103.863871997607
26585.377|43057.5859|Springside Park|Can be seen from the main road|848D9F18FD8CAA80|20200218182414||1.40567198380168|103.820607004324
28195.1328|40987.8438|Florissa Park Playground|Near Lentor Loop and within Florissa Park|C635184863DD7F95|20200218182414||1.38695401385743|103.835071996736
15377.1445|44667.3125|Kranji Marshes|Kranji Gate:, 11 Neo Tiew Lane 2,, Singapore 718814|F776651BCCCA71C7|20200218182414|www.nparks.gov.sg/gardens-parks-and-nature/parks-and-nature-reserves/kranji-marshes|1.4202270044737|103.719891001209
28407.9023|48792.8867|Janggus Garden|Off Sembawang Road/Janggus  Road|C5BEF6020AC6C9BF|20200218182414||1.45754000043802|103.836984004973
29424.582000000002|29209.8516|Ann Siang Hill Park|Entrance via Ann Siang Road, Ann Siang Hill and Amoy Street|A3861CAF6D92A3C6|20200218182414||1.28043799569511|103.846118991983
28901.511700000003|29285.4824|Duxton Plain Park|Entrance via New Bridge Road, Neil Road, Kreta Ayer Road and Yan Kit Road|26B7D581B2162D25|20200218182414||1.28112199338038|103.841419008008
28195.6855|46590.4531|Yishun Neighbourhood Park|Bound by Yishun Ave 2, Ave 7 and St 22. Yishun St 20 leads straight to the park.|9D531CC4CC25FAEE|20200218182414|www.nparks.gov.sg/gardens-parks-and-nature/parks-and-nature-reserves/yishun-neighbourhood-park|1.43762199315966|103.835077000931
38918.97|33128.28|Tanah Puteh Park|Jalan Tanah Puteh|C32F84850A50B2E9|20200218182414||1.31587297458671|103.931431007828
40304.340000000004|35024.48|Jalan Pari Dedap Playground|Jalan Pari Dedap|B253351D85E65E0A|20200218182414||1.33302098061918|103.943879998136
40583.168|34025.1172|Jalan Limau Kasturi Playground|Junction of Jalan Limau Kasturi and Jalan Limau Nipis|9257829B06B65D33|20200218182414||1.32398300052142|103.946385010592
32200.668|42349.2734|Dew Garden|Jalan Tari Payong|B1087E9F050C5D64|20200218182414||1.39926598983919|103.871064999127
30607.8359|41066.14|Sunrise Way Playground|Located along Sunrise Way|5AD78C5AAD9DF46D|20200218182414||1.38766198061858|103.8567519929
33398.23|36545.88|Jalan Kelichap Playground|Located along Jalan Kelichap (Road) is a central green space surrounded by residential houses in Tai keng gardens Estate|E320990175BAA58F|20200218182414||1.34678199384784|103.881825008434
37822.29|33765.1523|Interim Park at Terang Bulan Avenue|Between New Upper Changi Road and Terang Bulan Ave|B6D8116DB09F97B6|20200218182414||1.32163298613197|103.921576998431
41901.76|35690|Sunbird Circle Playground|Sunbird Circle|F29F4C63B7397725|20200218182414||1.33903900258699|103.958233998139
42136.54|36470.23|Jalan Pelatok Playground|Jalan Pelatok|5C59D5B40A6ADC9A|20200218182414||1.34609499913104|103.96034399401
40565.69|34058.4|Jalan Limau Kasturi Open Space|Junction of Jalan Limau Kasturi and Jalan Limau Nipis|E576647428D29775|20200218182414||1.32428400500475|103.946227975324
45029.7422|41523.58|Changi East Boardwalk|Along Changi Village Road near Civil Service Club|75B94ABAD360C035|20200218182414||1.39179402610172|103.98634401654
27541.654300000002|40439.168|Teacher's Estate Playground|Teacher's estate , opposite shop houses|77203A0769DABF8D|20200218182414||1.38199198350515|103.829199999261
38070.4|32588.9766|East Coast Terrace Park|2 parts of the Park, bounded by East Coast Avenue and Marine Parade Road|6D0045A80FDBB63B|20200218182414||1.31099600110692|103.923806011504
26100.54|32594.55|Singapore Botanic Gardens|Located in central Singapore and just five minutes away (by bus) from Orchard Road., Address: 1 Cluny Road, Singapore 259569|B9A3B07267C422E1|20200424165515||1.31104799117615|103.8162510018
24640.57|27586.96|Labrador Nature Reserve|Along Labrador Villa Road|75F7C879647D4FBA|20200424165515||1.26576098729676|103.803132991334
26812.40275|46208.64166|Sembawang Hot Spring Park|Along Gambas Avenue|DB357C60AF775573|20200424165515|www.nparks.gov.sg/gardens-parks-and-nature/parks-and-nature-reserves/sembawang-hot-spring-park|1.43416900745054|103.822646892476
39451.043|33254.36|Sennett Avenue Playground|Bounded by Sennett Ave and Sennett Place|0FCE10E5E6E256C6|20200218182414||1.31701300192687|103.936211992606
40025.74|33505.832|Lucky Gardens Playground|Lucky Gardens|1C026F0B6C8B6B1F|20200218182414||1.31928700190599|103.941376027843
37743.57|35169.7227|Bedok Town Park|Bedok North Avenue 3. Bounded by Bedok North Road, Bedok North Avenue 3 and the Pan Island Expressway|D24B1FE235BEE9F4|20200218182414|www.nparks.gov.sg/gardens-parks-and-nature/parks-and-nature-reserves/bedok-town-park|1.33433543386641|103.920870105439
28556.7051|40924.26|Lentor Grove Playground|Near Lentor Road and Lentor Green|C38D382A967F2E94|20200218182414||1.38637898011574|103.838321000262
36846.0938|32514.7383|Telok Kurau Lorong N Park|Lorong N Telok Kurau|586903718DAAF613|20200218182414||1.31032499244793|103.912805012433
31905.5547|41081.1953|Dedap Place Playground|Dedap Place|BC4B404B91317126|20200218182414||1.38779799024028|103.868412996645
31809.8965|37700.2539|Chuan Walk Playground|Along Chuan Walk|FE592D76E41AC86E|20200218182414||1.35722198250143|103.867552999516
38404.5977|35695.9258|Bedok Reservoir Park|Along Bedok Reservoir Road|3F999E73F889E1C3|20200218182414|www.nparks.gov.sg/gardens-parks-and-nature/parks-and-nature-reserves/bedok-reservoir-park|1.33909400181013|103.926809990659
31792.440000000002|36582.01|Jalan Riang Playground|Located along Jalan Riang (Road) is a central green space surrounded by shophouses and residential houses in Braddel Height Estate.|6E418CC1927067D6|20200218182414||1.34710898656633|103.867396000461
43865.020000000004|41329.9961|Changi West Boardwalk|Along Andover and Cranwell Road|A7845D36BCDC1CFC|20200218182414||1.39004398808481|103.975878001995
21140.61|35341.090000000004|Cheng Soon Garden Playground|Located along Kismis Road and Toh Yi Drive|A67AD95D8F7A42BC|20200218182414||1.33588600793432|103.771683001973
20594.543|36474.72|Jalan Tekukor Playground|Jalan Selanting, along Jalan Jurong Kechil|1F38F9A714071F75|20200218182414||1.34613801947644|103.766776000112
23911.4746|33949.2266|Namly Park|Located along Namly Place|D4098D99D8A898F9|20200218182414||1.32329899251823|103.796581000747
29047.1738|34119.375|Novena Rise Park|Along Novena Rise|3239DA75EB85361C|20200218182414||1.3248380105169|103.842727999825
29100.1523|32743.9336|Hooper Road Playground|Along Hooper Road and Makepeace Road/Jalan Aruan|3EB910FEC676D119|20200218182414||1.31239900279065|103.843203991187
23062.58|29073.7734|Chwee Chian Playground|Chwee Chian Road, Springwood Estate|4FD06B73056FE731|20200218182414||1.27920699805128|103.788954002616
30256.8164|30202.709|Esplanade Park|Along Connaught Drive, opposite Padang and City Hall|796C29E57BAEE0E3|20200218182414|www.nparks.gov.sg/gardens-parks-and-nature/parks-and-nature-reserves/esplanade-park|1.28941700056052|103.853597006001
29555.4121|38168.4063|Bishan-Ang Mo Kio Park|Along Bishan Road and Ang Mo Kio Ave 1|ED24812599665100|20200218182414||1.3614559889116|103.847295002494
34109.36|31746.834|Arthur Park|Along Arthur Road|FE5148DF1325C119|20200218182414||1.30338100339795|103.88821399352
23219.9941|31845.9941|one-north Park: Biopolis|North Buona Vista Road, opposite Ministry of Education|9E56510CDF41EAFD|20200218182414|www.nparks.gov.sg/gardens-parks-and-nature/parks-and-nature-reserves/one-north-park-biopolis|1.30427800508224|103.790368006179
33903.82|31060.6016|Katong Park|Junction of Meyer Road & Fort Road|872C841CC5199FAA|20200218182414||1.29717500161512|103.88636699295
34775.2266|31214.7617|Meyer Road Playground|Junction of Meyer Road & Crescent Rd|FE035938BE2DF0F3|20200218182414||1.29856899320857|103.894196994238
29172.2676|33159.03|Thomson Road Playground|Along Licoln Road|F22245ECFDC85E78|20200218182414||1.31615298537997|103.843851998491
26286.09|33661.32|Jacob Ballas Children's Garden|In the Bukit Timah Core of the Singapore Botanic Gardens, Address: 481, Bukit Timah Road, Singapore 259769|70AD9F934D3DC44D|20200218182414|www.nparks.gov.sg/gardens-parks-and-nature/parks-and-nature-reserves/jacob-ballas-childrens-garden|1.32069549289459|103.81791820006
27092.156300000002|37816.1133|Jupiter Road Playground|Along Jupiter road playground|B8558938C839E971|20200218182414||1.35827000334118|103.825161003409
28821.3672|33624.33|Gentle Drive Playground|At the end of Gentle Drive|6433E1F4C5E4ACB5|20200218182414||1.32036100553335|103.840698992687
27983.91|33709.69|Goldhill Avenue Playground|Junction of Goldhill Place and Goldhil Avenue|E4B5AF291E6150FE|20200218182414||1.32113298217552|103.833174001996
23410.0273|28685.8711|Pasir Panjang Park|Off Pasir Panjang Road, beside Pasir Panjang Food Centre|0D115E6FDFCD277D|20200218182414||1.27569899889613|103.792076002745
34237.875|32882.332|Lorong 40 Geylang Playground|Along Lor 40 Geylang|8E53310885968D73|20200218182414||1.31365001641553|103.889368987508
29487.7988|28959.9531|Telok Ayer Park|Bounded by Maxwell Road, Cecil Street and Telok Ayer Street|611FE49DC6D16BDF|20200218182414||1.27817799839718|103.84668700735
33191.0469|34594.8945|Aljunied Park|Along Aljunied Road within Happy Garden Estate|AEDED76F676EB90A|20200218182414||1.3291380155208|103.879963007648
23199.58|29053.7578|Jambol Place Park|Jambol Place, Springwood Estate|3420DA28EF5B5655|20200218182414||1.27902600515874|103.790185001957
28692.5039|29424.6953|Pearl's Hill City Park|Along Chin Swee Road and Pearl's Hill Road|4263D837CC5538E9|20200218182414|www.nparks.gov.sg/gardens-parks-and-nature/parks-and-nature-reserves/pearls-hill-city-park|1.28238099129417|103.839540995736
33021.1|34947.293|Oasis@Mulberry Park|Junction of Upper Aljunied Road & Mulberry Avenue, Sennett Estate|AC7AA1819698A319|20200218182414||1.33232501027716|103.878435998931
35503.3828|32093.8516|Haig Walk|Adjacent to Seraya Lane and Mugliston Road|50CB7B0AD7A8537E|20200218182414||1.30651900009923|103.900740008896
28737.4453|37347.9375|Jalan Pintau Playground|along Jalan Pintau|EE93BB5C3B7D382C|20200218182414||1.35403599295373|103.839945000658
35610.0859|32966.18|Joo Chiat Terrace Interim Park|Along Joo Chiat Terrace|257CCFABE97D31F2|20200218182414||1.3144079987312|103.901698999963
24482.6328|35320.9023|Orchid Village Playground|Along Liden Dr|179F0FF2BDAE0A76|20200218182414||1.33570401108734|103.801713002995
21316.0781|33927.7148|Clementi Crescent Playground|Within Clementi Crescent Estate|ADC0488E38A1F9B4|20200218182414||1.3231039894972|103.773259992457
29046.271500000003|37274.2969|Pemimpin Place Playground|Along Pemimpin Place|F6C50CD9F00C7DFC|20200218182414||1.35337000437201|103.842720000709
27856.373|37304.92|Soo Chow Walk Playground|along Soo chow walk|462A8A66480A45CC|20200218182414||1.35364696671371|103.832027997859
20506.3848|35853.0664|Highgate Walk Playground|Along Highgate walk|A888D0B2ADED9910|20200218182414||1.34051598711497|103.765983998843
27456.96|38228.4453|Island Gardens Walk Playground|Along Island Garden Walk|D3DEEB0BBA176DD7|20200218182414||1.36199899589951|103.828438998161
28030.207000000002|35964.3125|MacRitchie Reservoir Park|Along Lornie Road|D89B4580EEF9CB19|20200218182414|www.nparks.gov.sg/gardens-parks-and-nature/parks-and-nature-reserves/macritchie-reservoir-park|1.34152298935114|103.833590006976
31490.1465|30330.4355|Marina Promenade|Along Republic Boulevard and Republic Avenue|00E1DB2943D1749C|20200218182414||1.29057200094772|103.864678999149
29888.2676|39176.3|Ang Mo Kio Town Garden East|Junction of Ang Mo Kio Ave 3 and 8, behind Ang Mo Kio MRT Station|92EF3F1DFACC5D11|20200218182414|www.nparks.gov.sg/gardens-parks-and-nature/parks-and-nature-reserves/ang-mo-kio-town-garden-east|1.37057100018187|103.850285996786
22375.4258|32753.2754|Holland Grove View Fitness Corner|Along Holland Grove View|719020429F7BECFD|20200218182414||1.31248299217226|103.782779005345
23321.6367|33853.8125|Sixth Avenue Playground|Along Sixth Avenue|DCD74FFF6BA84174|20200218182414||1.32243601665582|103.791281008483
30392.7|30579.5488|War Memorial Park|Bounded by Nicoll Highway, Stamford Road, Beach Road and Bras Basah Road|CA1E86CCF0B4B07B|20200218182414|www.nparks.gov.sg/gardens-parks-and-nature/parks-and-nature-reserves/war-memorial-park|1.29282499699848|103.854818004778
31618.752|34005.28|Beng Wan Road Playground|Along Beng Wan Road|F571533F1A656670|20200218182414||1.32380597927059|103.86583500031
22411.8262|33168.1523|Henry Park|Along holland grove road|ED401EE20873C3AB|20200218182414||1.31623499758018|103.783106005851
29290.582000000002|30608.8438|River Valley Road / Clemenceau Avenue Open Space|Bounded by River Valley Road and Clemenceau Avenue|5EA9119C5C096F48|20200218182414||1.29308999556797|103.84491500795
29064.8477|39558.2227|Ang Mo Kio Town Garden West|Opposite Ang Mo Kio Town Library, along Ang Mo Kio Avenue 6|D5F6AA05F4EBB8F2|20200218182414|www.nparks.gov.sg/gardens-parks-and-nature/parks-and-nature-reserves/ang-mo-kio-town-garden-west|1.37402501376588|103.842887001241
22165.8223|35950.332|Mayfair Park|Located along Jalan Gaharu|24E912B43EB95878|20200218182414||1.34139598931109|103.780895006173
34574.8633|32981.9648|Guillemard Road Open Space|Besides City Plaza towards Geylang Road|069CCF717AF5088A|20200218182414||1.3145509896298|103.892397015046
28079.7285|37626.6953|Thomson Park Estate Interim Park||A59816CD9F1E86FD|20200218182414||1.35655698822033|103.834034991637
38073.918|33718.168|Bangsawan Park|Jalan Bangsawan|E8D1D421BBAB98DB|20200218182414||1.32120799539342|103.923837990533
41833.07|33929.2|Eastwood Park Playground|Between Eastwood Way and Bedok PCN|F4FD697FF3D7BEB4|20200218182414||1.32311502040416|103.957615982182
25292.1484|34878.48|Watten Heights Playground|Along Watten Estate Road|C753D8230DE8A523|20200218182414||1.33170298432389|103.80898700707
22534.24|32894.81|Grove Lane Playground|Grove Lane, Grove Crescent and Grove Avenue|4C9A125C82C49F0D|20200218182414||1.31376300928782|103.784206003929
35304.38|32644.841800000002|Carpmael Road Open Space|Along Carpmael Road▀ and Ceylon Road|53A5108956DD999A|20200218182414||1.31150200552321|103.898952005306
28477.707000000002|31548.3965|Orchard Fountain Corner|Junction of Grange Road and Orchard Road|BFF845B255FD0BDE|20200218182414||1.30158700260588|103.837610994321
23796.0469|32669.9883|Holland Village Park|Junction of Holland Road and Holland Avenue|10230E7C94A5172E|20200218182414|www.nparks.gov.sg/gardens-parks-and-nature/parks-and-nature-reserves/holland-village-park|1.31173000006272|103.795543995849
30243.0176|29970.834000000003|Waterboat House Garden|Along Fullerton Road|AFF1460341FB3F9A|20200218182414||1.28732000560153|103.853473001627
30396.1348|32304.1855|Rowell Road Open Space|Along Rowell Rd|3A9F65E90F23A4FD|20200218182414||1.30842200284088|103.854849
31040.5313|30100.2129|Youth Olympic Park|Raffles Avenue. Junction of Raffles Avenue and Bayfront Bridge|FFEB8DC08F15C9DE|20200218182414|www.nparks.gov.sg/gardens-parks-and-nature/parks-and-nature-reserves/youth-olympic-park|1.28848999572479|103.860638997467
24902.6387|35299.0039|Greenwood Crescent Playground|Along Greenwood crescent|663619BA22257536|20200218182414||1.33550601569391|103.805487000523
24591.6113|28317.1973|Berlayer Creek|Behind Labrador Park MRT Station, 701 Telok Blangah Road|8467604070BF4B31|20200218182414||1.27236499187616|103.802693003573
27628.11|29586.5781|Kim Pong Park|Along Kim Pong Road and Kim Tian Road|FBF2CCADBB5BAF97|20200218182414|www.nparks.gov.sg/gardens-parks-and-nature/parks-and-nature-reserves/kim-pong-park|1.28384500791232|103.829977001375
29056.6348|33840.17|Novena Park|Along Jalan Novena|58741C149776580F|20200218182414||1.32231297895579|103.842813002418
20382.2852|35389.543|Golden Rise Playground|Junction of Lorong Kismis and Toh Tuck Rise|179D861B34F7D0F9|20200218182414||1.33632401782669|103.764869007062
30388.010000000002|32452.0234|Lembu Road Open Space|Along Lembu Road|DB0C82B620ED0B07|20200218182414||1.30975899721142|103.854776006135
21291.65|36223.14|Hoover Park|Along Lorong Pisang Batu|E472D9BDFF470AB7|20200218182414||1.34386298455144|103.773039987989
35123.0078|31392.2441|Tanjong Katong Road South Playground|Along Tg Katong Road South|346A2DD6DADE8CD8|20200218182414||1.30017400290536|103.89732200163
22093.53|32933.7422|Jalan Kebaya Playground|junction of Jln Kebaya and Holland Grove Ave|B3CDBBD33E9E5638|20200218182414||1.31411501669973|103.780245998799
25461.5273|34507.06|Shelford Road Playground|Junction of Watten Rise and Shelford Road|1C58B562BCE93BB3|20200218182414||1.32834400830712|103.810509002674
27303.260000000002|33914.7|Malcolm Park|Along Malcolm Rd and Whiteley Rd|A8E6BEBC85BB54D1|20200218182414||1.32298701214919|103.827057999456
29376.9434|30516.8457|The Foothills Fort Canning Park|Along River Valley Road, opposite Liang Court|99BE2CEDB1A1BFA8|20200218182414||1.29225799342141|103.84569099786
33385.0156|35110.1758|MacPherson Linear Park|A linear park between Blk 20, Joo Seng Road and MacPherson Road in MacPherson Garden Estate. Also a transitional zone for commuters in industrial areas and for transport purposes.|2399BFAA54288753|20200218182414||1.33379800164764|103.881706014162
27830.7734|30351.2012|Ganges Avenue Open Space|Along Ganges Avenue|0FF74BF951ED6729|20200218182414||1.29075999254776|103.83179800761
32707.2637|34897.418|Chempaka Avenue Playground|Chempaka Avenue, Sennett Estate|740DB9D7A2814784|20200218182414||1.33187400889662|103.875615995335
34047.55|33780.4141|Geylang East Park|Besides Geylang East Swimming Complex along Aljunied Ave 1|79C5841226829C46|20200218182414||1.32177198800448|103.887658999231
29479.11|30463.7715|Fort Canning Park|Fort Canning Park is bounded by Hill Street, Canning Rise, Clemenceau Avenue and River Valley Road|D3CA7E673B90B48F|20200218182414|www.nparks.gov.sg/gardens-parks-and-nature/parks-and-nature-reserves/fort-canning-park|1.29177800435869|103.846609005448
46735.9531|40595.6328|Changi Beach Park|Along Nicoll Drive and Changi Coast Road|8C0F232B46BD112E|20200218182414|www.nparks.gov.sg/gardens-parks-and-nature/parks-and-nature-reserves/changi-beach-park|1.38340098971507|104.001675008726
41004.15|34662.3828|Jalan Chempaka Kuning Playground|Jalan Chempaka Kuning|811AD50F8608532A|20200218182414||1.32974601652478|103.950168022101
30831.08|40876.0664|Saraca Road Playground|Junction of Saraca Rd & Saraca Drive|59814E4B09F6FE7C|20200218182414||1.38594300243715|103.858757994618
31131.7813|40562.2578|Mimosa Walk Playground|Located along Mimosa Walk|B913153879777CA2|20200218182414||1.38310499948583|103.861459991791
42488.43|36614.9922|Mera Terrace Playground|Seagull Ave|FD3CD16FF0D16269|20200218182414||1.34740400583367|103.963506003857
41678.19|35484.87|Jalan Angin Laut Playground|Jalan Angin Laut|73EB6C1271B1DC36|20200218182414||1.33718398610323|103.956225002141
30440.9043|41357.950000000004|Sunrise Drive Playground 2|Located along Sunrise Drive|9BE4069974834C80|20200218182414||1.39030101988892|103.855252008289
28473.3516|41135.793|Lentor Road Playground|Junction of Lentor Road and Lentor Loop|166C60CDAE11A5FE|20200218182414||1.38829201020433|103.837572008652
41227.020000000004|40073.72|Pasir Ris Park|Pasir Ris Park stretches from Pasir Ris Road to Jalan Loyang Besar and can be accessed through Elias Road and Pasir Ris Green|41ED0CEE6A43FA08|20200218182414|www.nparks.gov.sg/gardens-parks-and-nature/parks-and-nature-reserves/pasir-ris-park|1.37868402178859|103.952173012299
42725.4922|38343.8477|Loyang View Playground|Loyang view|16E8EE8751EDE02C|20200218182414||1.36303900201943|103.965636997663
37578.28|32311.084|Jalan Buloh Perindu Playground|Bounded by Jln Buloh Perindu and Keris Drive|FF174AC2E0F7B7EE|20200218182414||1.30848299814914|103.919383992137
40637.7852|34583.082|Tanah Merah Playground|Tanah Merah Kechil Ave|DA05434EA9991889|20200218182414||1.32902900416768|103.94687600443
32659.3184|40162.7734|Luxus Hills Park|Junction of Ang Mo Kio Ave 5 and Yio Chu Kang Road|2CE34B8946F4115F|20200218182414||1.37949200292749|103.875185997533
28612.904300000002|41020.5742|Banyan Villas Playground|Junction of Lentor Road and Lentor Plains|DA9218CFEB990E1B|20200218182414||1.38725001009072|103.838825995108
37023.770000000004|34137.7656|Taman Kembangan Playground|Along Taman Selamat and Taman Kembangan|CC2570746FC5DF0A|20200218182414||1.32500301174325|103.914401992508
40879.5273|34107.5078|Jalan Limau Manis Playground|Junction of Jalan Limau Nipis and Jalan Limau Manis|E2E2592EB83AD7F2|20200218182414||1.32472798680362|103.949047986876
33432.03|38110.183600000004|Richards Avenue Park|Along Richards Ave|DDA293041C8C4401|20200218182414||1.36092898756718|103.882129005066
32510.3789|42323.74|Lorong Tanggam Park|Lorong Tanggam|B46F9A64955BD430|20200218182414||1.39903502830064|103.873847999194
25144.2383|34327.0469|Bougainvillea Park|Junction of Dunearn Road and Watten Drive|CA4851EDE75AEDFE|20200218182414||1.32671600556136|103.807658003097
22379.3535|34343.12|Holland Green Playground|End of Holland Green road|B12A777F24E41F01|20200218182414||1.32686097997825|103.782814007566
31208.2285|31827.2832|North Bridge Garden|Along North bridge Road|61388BE2BB2E2435|20200218182414||1.30410899340616|103.862146001865
29170.8281|31291.5332|Istana Park|Bounded by Orchard Road, Penang Road, Penang Lane and Buyong Road.|F83007523ABDA15B|20200218182414|www.nparks.gov.sg/gardens-parks-and-nature/parks-and-nature-reserves/istana-park|1.29926400300755|103.843838993634
29630.33|34754.2969|Toa Payoh Town Park|Junction of Toa Payoh Lor 2 and Toa Payoh Lor 6|C45A8A635B5C3F8B|20200218182414|www.nparks.gov.sg/gardens-parks-and-nature/parks-and-nature-reserves/toa-payoh-town-park|1.33057999366942|103.847968006121
28182.341800000002|30581.1973|Kim Seng Park|Entrance via River Valley Green|00FD96AE03E7E4EA|20200218182414||1.29283999640308|103.834956997814
22202.1523|33109.996100000004|Mount Sinai Plain Playground|mount sinai plain, mount sinai crescent|C08AFFA29839130C|20200218182414||1.3157090147631|103.78122199104
28116.343800000002|37376.1328|Thomson Park|along Jalan Sembilang Road|00CFA46FDF491EDD|20200218182414||1.35429099006295|103.834364003112
22203.0371|32805.0273|Holland Grove View Playground|Along Holland Grove View|A98C186F51D9414E|20200218182414||1.31295098590754|103.781229998572
29398.1973|31189.6953|Dhoby Ghaut Green|Adjacent to Dhoby Ghaut MRT Station, opposite the Park Mall Shopping Centre|9D21F9CFC0C0E487|20200218182414|www.nparks.gov.sg/gardens-parks-and-nature/parks-and-nature-reserves/dhoby-ghaut-green|1.29834300751732|103.845882003067
29574.033199999998|31870.2832|Mount Emily Park|Along Mt Emily Rd and Upper Wilkie Rd|043225DC16008504|20200218182414||1.30449799629073|103.847462000956
31746.0938|32012.8359|Kallang Riverside Park|Along Kallang Road, Stadium Road and Crawford Street|8BD1CD702AE3F9F7|20200218182414|www.nparks.gov.sg/gardens-parks-and-nature/parks-and-nature-reserves/kallang-riverside-park|1.30578700601773|103.866978993095
30074.2988|29915.9863|Empress Place|Entrance via Empress Place|584CB62EF1ED852B|20200218182414||1.2868239938791|103.851956991278
26319.87|28639.62|Mount Faber Park|Junction of Kampong Bahru Road and Telok Blangah Road|D96EF1306309FB7E|20200218182414|www.nparks.gov.sg/gardens-parks-and-nature/parks-and-nature-reserves/mount-faber-park|1.27528100835684|103.818222000624
37714.1875|31723.4941|East Coast Park|Along East Coast Parkway and East Coast Park Service Road|E4658AB7BFDC0DB5|20200218182414||1.30316900590952|103.920605001614
41071.5156|33855.96|Limau Garden Playground|Junction of Limau Garden and Salam Walk|B8289869042E85E1|20200218182414||1.3224530006075|103.950772994504
42129.76|36280.9258|Meragi Road Playground|Meragi Road|FBEBA0B887452AE6|20200218182414||1.34438300662538|103.960282983203
34289.2656|38814.9|Realty Park Playground|Along Lor 1 Realty Park|828FD782D8A57226|20200218182414||1.367302019013|103.889831987144
41249.87|39300.3555|Pasir Ris Town Park|Along Pasir Ris Central, Opposite Pasir Ris MRT Station|682A4F3AC560CD9B|20200218182414||1.37168999463144|103.952377989422
41328.457|34404.8672|Bedok Ria Crescent Playground|Between Bedok Ria Crescent and Bedok PCN|804F060931653541|20200218182414||1.3274170012123|103.953081982587
23891.3281|33808.4648|Coronation Park Playground|Junction of Jalan Hagi Alias and Coronation Road West|408D16EA6460027C|20200218182414||1.32202599013522|103.796399992559
27650.0449|38119.5273|The Inglewood Playground|Along the Inglewood|AF2C2058DC5E9B57|20200218182414||1.36101398325524|103.830173997508
24901.7344|34058.793|Duchess Park|Along Duchess Avenue|A1D39EA678EDFFFA|20200218182414||1.32428998877263|103.805479000604
29257.9434|37019.090000000004|Clover Crescent Playground|Along Clover Crescent and Clover Ave|B1F341352F20F9F9|20200218182414||1.35106199585901|103.844621998074
29138.420000000002|36755.0352|Binchang Rise Playground|At the end of Binchang Rise|ACAB3D6A3F7E02FE|20200218182414||1.34867398297342|103.843547994579
28206.600000000002|36918.9063|Taman Permata Park|Along Upper Thomson Road|AEFDE6CC600E00FB|20200218182414||1.35015599579781|103.835175010264
22629.332000000002|35465.4531|Hua Guan Crescent Playground|Located along Hua Guan Crescent|74CC369AA90F4995|20200218182414||1.33701100440066|103.785060002552
24901.2441|39920.92|Central Catchment Nature Reserve|601 Island Club Road (Located close to Singapore Island Country Club, via Venus Drive )|3621026BD1D211A3|20200218182414|www.nparks.gov.sg/gardens-parks-and-nature/parks-and-nature-reserves/central-catchment-nature-reserve|1.37730497383028|103.805473991222
32421.7|34659.3438|Siang Kuang Avenue Interim Park|Siang Kuang Avenue, Sennett Estate|C0F24BDD65199A53|20200218182414||1.32972099363571|103.873050010599
30763.7246|32642.77|Somme Road Playground|Along Petain Rd and Kitchener Link|84145C82116A130E|20200218182414||1.31148401066078|103.858152000653
29729.7344|30899.3262|Stamford Green|Bounded by Canning Rise and Stamford Road; Next to National Museum of Singapore|C73F1EE0BEE9D1B4|20200218182414||1.29571699496852|103.848860995111
24965.9414|33486.0156|King's Drive  Playground|junction of king's road and king's drive|D2871F4E89CF3AEF|20200218182414||1.31910999951731|103.806055991416
26258.0254|34187.270000000004|University Road Park|At the end of University Walk|382980E5C992C4D6|20200218182414||1.32545199692878|103.817665995097
22964.9512|33837.4531|Greenleaf View Park Playground|At the end of Greenleaf View|E3D8EBD783D3B367|20200218182414||1.32228801135119|103.788076003791
22159.4824|39220.65|Chestnut Nature Park|Located along Chestnut Avenue and is abutting Central Catchment Nature Reserve, stretches along BKE, from Gali Batu Flyover to Dairy Farm Flyover., PUB Waterworks is situated at the end of Chestnut Avenue, demarking the access road across the middle of Chestnut Nature Park.|AFBB1AAB4CEF1004|20200218182414|www.nparks.gov.sg/gardens-parks-and-nature/parks-and-nature-reserves/chestnut-nature-park|1.37097156701338|103.78083740117
29594.3027|29323.4141|Telok Ayer Green|Bounded by Amoy Street, Boon Tat Street and Telok Ayer Street|07CFE6567539200A|20200218182414||1.28146500698614|103.847644002876
28695.595699999998|39413.700000000004|Mayflower Crescent Playground|At the junction of Mayflower Crescent and Mayflower Avenue|B01AE2FF8B58F5CA|20200218182414||1.3727180131601|103.839569003072
30676.6113|41137.35|Sunrise Drive Playground 1|Located along Sunrise Drive|66086C14E8DACE2D|20200218182414||1.38830597203414|103.857369999308
39994.0938|39355.5859|Elias Terrace Playground|Junction of Elias Terrace and Elias Green|8B06ED4574E90FC9|20200218182414||1.37219001582779|103.941093992579
40813.1055|33764.6133|Kew Avenue Playground|Junction of Kew Avenue and Kew Drive|E3FD62E109D01A9C|20200218182414||1.32162700448726|103.948451009513
37385.9531|32814.4141|Greenfield Drive Playground|Greenfield Drive|8B896BD1155428FB|20200218182414||1.31303499211434|103.917655996762
40371.2031|37926.31|Sun Plaza Park|Along Tampines Avenue 7, Tampines Avenue 9|5BBA8A8EB630BA01|20200218182414|www.nparks.gov.sg/gardens-parks-and-nature/parks-and-nature-reserves/sun-plaza-park|1.359264023047|103.944481988262
45135.69|41460.7773|Changi Point Ferry Terminal|Near Lor Bekukong|AA9DDE6381971B22|20200218182414||1.39122600073616|103.987296000544
27896.8828|39226.05|Shangri-La Playground|Junction of Ang Mo Kio Ave 2 and Jalan Lanjut|FF16ED3C3767BD2C|20200218182414||1.37102098159919|103.832391997745
38142.700000000004|33595.7656|Opera Estate Football Field|Swan Lake Avenue|AD2BA4AF1306E38A|20200218182414||1.32010101002963|103.924455991866
28314.656300000002|41109.4766|Lentor Vale Playground|Junction of Lentor Vale and Lentor Way|00D14D4E70684188|20200218182414||1.3880540162578|103.836146008453
41029.44|34010.6523|Limau Villas Playground|End of Limau Terrace from Jalan Langgar Bedok|D2D5F65DB241AD6D|20200218182414||1.32385199809351|103.950394989304
33592.3125|36787.4922|Paya Lebar Crescent Open Space|Central open space at round about along Paya lebar cresent (road)|533A17097CE72D63|20200218182414||1.34896701230879|103.883569003858
32962.0078|40821.14|Mugliston Park Playground|Junction of Gerald Drive & Mugliston Park|03F3E458EBEEFCEC|20200218182414||1.38544598318684|103.87790599596
40502.98|40079.1|Sungei Api Api Park|Entrance via Pasir Ris Drive 3, Riverina View and Elias Road|4894713B31B66C67|20200218182414||1.37873299431662|103.9456669951
28463.8926|40294.207|Yio Chu Kang Gardens Playground|Turn right after Yio Chu Kang estate entrance|4BD7AB1ED2B7588F|20200218182414||1.3806810080854|103.837486998981
40839.48|38440.6133|Tampines Eco Green|Tampines Avenue 9 and Tampines Avenue 12|4B8A3DF67A51E9DA|20200218182414|www.nparks.gov.sg/gardens-parks-and-nature/parks-and-nature-reserves/tampines-eco-green|1.36391499068087|103.948689980155
31019.38|40666.75|Mimosa Terrace Playground|Located along Mimosa Rd|78C61210DF1CC17B|20200218182414||1.38405000123823|103.860449992285
31608.5332|40836.9336|Neram Crescent Playground|Neram Crescent|F61B266734F722E2|20200218182414||1.38558901364397|103.865743999885
45223.9453|41396.76|Changi Point Waterfront Park|Near Lor Bekukong|554EFA4C1308DF81|20200218182414||1.39064700115984|103.98808900299
38528.9922|33516.0547|Aida Park|Between Bedok South Road and Aida Street|B1967F93364DFF89|20200218182414||1.31938000337146|103.927926997004
33751.35|36467.270000000004|Tai Keng Gardens Playground|A garden with hill top flanked by Jalan Lokam (Road), Tai keng Lane and Tai keng Garden (Road)|5849B290D7DCE062|20200218182414||1.34607100763102|103.884997993848
34348.5273|38888.0625|Realty Park|Along Hougang Ave 4|A7BB1BF496807A8B|20200218182414||1.36796366154687|103.890364510014
45346.4766|41344.2461|Changi Point Promenade|Near Lor Bekukong|5FEA22BCC48153DA|20200218182414||1.39017201315715|103.989190007291
33857.832|37476.270000000004|Aroozoo Avenue Playground|Bounded by Aroozoo Ave and Jalan Mastuli|ACBC9E152D19BD06|20200218182414||1.35519602028456|103.885954996071
35836.5352|41506.1133|St. Anne's Wood Playground|Inside the private housing estate at St Anne's Wood|43A081292A7AE024|20200218182414||1.3916400007576|103.903735985364
40706.1328|34196.625|Bedok Terrace Playground|Between Bedok Rise and Bedok Terrace|7FFC95EC84EF2F0F|20200218182414||1.32553400234434|103.947489983993
